AKARI (ASTRO-F)         
1 28939U 06005A   09079.98852422  .00000081  00000-0  27921-4 0  9452
2 28939  98.2464  84.0211 0009384  92.8813 267.3461 14.57527301163247
FORMOSAT-3 FM6          
1 29047U 06011A   09080.38881117  .00000001  00000-0  17060-4 0  9106
2 29047  71.9813 199.9397 0052904 294.4135  65.1465 14.27097032155203
FORMOSAT-3 FM1          
1 29048U 06011B   09080.42146136  .00000390  00000-0  17471-3 0  9552
2 29048  71.9701 115.4477 0047216 245.4172 114.1998 14.27112278157689
FORMOSAT-3 FM5          
1 29049U 06011C   09080.01812316  .00000361  00000-0  16364-3 0  8948
2 29049  72.0198 264.8347 0036527 307.7275  52.0547 14.27114836153404
FORMOSAT-3 FM3          
1 29050U 06011D   09080.13900654  .00001098  00000-0  26646-3 0  1772
2 29050  72.0088  91.1963 0054039 203.2581 156.6006 14.54008783158440
FORMOSAT-3 FM4          
1 29051U 06011E   09079.76906771  .00000373  00000-0  16522-3 0  9580
2 29051  72.0074 174.4994 0069898 179.3787 180.7437 14.27112325155952
FORMOSAT-3 FM2          
1 29052U 06011F   09080.65791811  .00000359  00000-0  16273-3 0  9710
2 29052  72.0348 234.4203 0042378 277.9229  81.7094 14.27108000154387
CLOUDSAT                
1 29107U 06016A   09080.03095613  .00000131  00000-0  39161-4 0  9333
2 29107  98.2345  25.9165 0001198  86.2716 273.8658 14.57099852154031
CALIPSO                 
1 29108U 06016B   09080.03115233  .00000139  00000-0  40969-4 0  9320
2 29108  98.2341  25.9687 0001047  80.5147 279.6206 14.57096734154012
HINODE (SOLAR-B)        
1 29479U 06041A   09080.23608588  .00000045  00000-0  17940-4 0  8071
2 29479  98.0850  86.5914 0014834 315.8679  44.1340 14.62886407133127
SJ-6C                   
1 29505U 06046A   09080.84526103 -.00000115  00000-0 -61895-5 0  7141
2 29505  97.6909  89.9624 0003878  25.6857 334.4569 14.90637391131079
SJ-6D                   
1 29506U 06046B   09080.84260342 -.00000190  00000-0 -14195-4 0  7088
2 29506  97.6930  89.1313 0003503  64.6891 295.4707 14.89944372131019
COROT                   
1 29678U 06063A   09080.80653206  .00000057  00000-0  32579-4 0  7365
2 29678  89.9265  12.7787 0007393  69.5907 290.6050 13.98085432113902
AIM                     
1 31304U 07015A   09080.24413737  .00001008  00000-0  10473-3 0  6491
2 31304  97.7952 181.7756 0012180 147.3731 212.8244 14.92080878103683
FGRST (GLAST)           
1 33053U 08029A   09080.73149207  .00000279  00000-0  00000+0 0  2050
2 33053  25.5827 216.4556 0014506 214.0870 145.8691 15.04915148 42695
KORONAS-FOTON           
1 33504U 09003A   09080.14319659  .00000036  00000-0  49607-6 0   444
2 33504  82.4777 310.8691 0016927  24.2281 335.9762 15.05247733  7463
